[{"OBJECT_NAME":"STARLINK-4786","OBJECT_ID":"2023-014C","EPOCH":"2026-03-09T09:24:36.743616","MEAN_MOTION":14.98328719,"ECCENTRICITY":0.00030724,"INCLINATION":69.9993,"RA_OF_ASC_NODE":65.1076,"ARG_OF_PERICENTER":269.3598,"MEAN_ANOMALY":90.7209,"EPHEMERIS_TYPE":0,"CLASSIFICATION_TYPE":"U","NORAD_CAT_ID":55393,"ELEMENT_SET_NO":999,"REV_AT_EPOCH":17201,"BSTAR":1.350925e-6,"MEAN_MOTION_DOT":-7.7e-7,"MEAN_MOTION_DDOT":0},{"OBJECT_NAME":"SAUDISAT 1B (SO-42)","OBJECT_ID":"2000-057E","EPOCH":"2026-03-09T23:18:23.116032","MEAN_MOTION":14.90902697,"ECCENTRICITY":0.00345198,"INCLINATION":64.5499,"RA_OF_ASC_NODE":306.1635,"ARG_OF_PERICENTER":324.2198,"MEAN_ANOMALY":35.6599,"EPHEMERIS_TYPE":0,"CLASSIFICATION_TYPE":"U","NORAD_CAT_ID":26549,"ELEMENT_SET_NO":999,"REV_AT_EPOCH":37681,"BSTAR":0.00018442418,"MEAN_MOTION_DOT":1.685e-5,"MEAN_MOTION_DDOT":0}]
